[Satellite]
VERSION=1.1
NAME=SL-3 R/B
NICKNAME=SL-3 R/B
TLE1=1 00877U 64053B   19317.00501327 -.00000044  00000-0  15806-4 0  9992
TLE2=2 00877  65.0782 244.3855 0053493 136.2964 224.2390 14.59376260929755
STATUS=0
